[{"OBJECT_NAME":"OTB-3-GAZELLE","OBJECT_ID":"2022-127A","EPOCH":"2026-04-25T21:41:22.291872","MEAN_MOTION":14.4265492,"ECCENTRICITY":0.00129398,"INCLINATION":98.3936,"RA_OF_ASC_NODE":108.4088,"ARG_OF_PERICENTER":352.1705,"MEAN_ANOMALY":7.9281,"EPHEMERIS_TYPE":0,"CLASSIFICATION_TYPE":"U","NORAD_CAT_ID":54023,"ELEMENT_SET_NO":999,"REV_AT_EPOCH":18682,"BSTAR":6.1698263e-5,"MEAN_MOTION_DOT":1.62e-6,"MEAN_MOTION_DDOT":0},{"OBJECT_NAME":"ASO-S","OBJECT_ID":"2022-129A","EPOCH":"2026-04-25T22:50:55.563072","MEAN_MOTION":14.52036378,"ECCENTRICITY":0.00130474,"INCLINATION":98.2765,"RA_OF_ASC_NODE":121.7792,"ARG_OF_PERICENTER":251.5651,"MEAN_ANOMALY":108.4126,"EPHEMERIS_TYPE":0,"CLASSIFICATION_TYPE":"U","NORAD_CAT_ID":54029,"ELEMENT_SET_NO":999,"REV_AT_EPOCH":18784,"BSTAR":5.9523589e-5,"MEAN_MOTION_DOT":1.96e-6,"MEAN_MOTION_DDOT":0},{"OBJECT_NAME":"HJ-2E","OBJECT_ID":"2022-132A","EPOCH":"2026-04-25T22:46:10.799904","MEAN_MOTION":15.21535149,"ECCENTRICITY":0.00205227,"INCLINATION":97.3819,"RA_OF_ASC_NODE":121.2972,"ARG_OF_PERICENTER":187.0243,"MEAN_ANOMALY":173.0709,"EPHEMERIS_TYPE":0,"CLASSIFICATION_TYPE":"U","NORAD_CAT_ID":54035,"ELEMENT_SET_NO":999,"REV_AT_EPOCH":19647,"BSTAR":0.00039156943,"MEAN_MOTION_DOT":8.803e-5,"MEAN_MOTION_DDOT":0},{"OBJECT_NAME":"COSMOS 2561","OBJECT_ID":"2022-137A","EPOCH":"2026-04-25T20:08:13.250400","MEAN_MOTION":15.50357392,"ECCENTRICITY":0.0009017,"INCLINATION":96.9242,"RA_OF_ASC_NODE":176.8293,"ARG_OF_PERICENTER":208.4587,"MEAN_ANOMALY":151.6174,"EPHEMERIS_TYPE":0,"CLASSIFICATION_TYPE":"U","NORAD_CAT_ID":54109,"ELEMENT_SET_NO":999,"REV_AT_EPOCH":19823,"BSTAR":0.00024637,"MEAN_MOTION_DOT":0.00013921,"MEAN_MOTION_DDOT":0},{"OBJECT_NAME":"GONETS-M 23","OBJECT_ID":"2022-139A","EPOCH":"2026-04-25T22:33:17.831808","MEAN_MOTION":12.42888469,"ECCENTRICITY":0.00214442,"INCLINATION":82.5112,"RA_OF_ASC_NODE":20.7607,"ARG_OF_PERICENTER":338.6377,"MEAN_ANOMALY":21.3806,"EPHEMERIS_TYPE":0,"CLASSIFICATION_TYPE":"U","NORAD_CAT_ID":54150,"ELEMENT_SET_NO":999,"REV_AT_EPOCH":15915,"BSTAR":0.00010213122,"MEAN_MOTION_DOT":2.4e-7,"MEAN_MOTION_DDOT":0},{"OBJECT_NAME":"GONETS-M 24","OBJECT_ID":"2022-139B","EPOCH":"2026-04-25T23:50:31.353216","MEAN_MOTION":12.42888983,"ECCENTRICITY":0.00168813,"INCLINATION":82.5025,"RA_OF_ASC_NODE":19.8231,"ARG_OF_PERICENTER":349.7895,"MEAN_ANOMALY":10.284,"EPHEMERIS_TYPE":0,"CLASSIFICATION_TYPE":"U","NORAD_CAT_ID":54151,"ELEMENT_SET_NO":999,"REV_AT_EPOCH":15916,"BSTAR":1.4546549e-5,"MEAN_MOTION_DOT":1.2e-7,"MEAN_MOTION_DDOT":0},{"OBJECT_NAME":"GONETS-M 25","OBJECT_ID":"2022-139C","EPOCH":"2026-04-25T21:34:56.589312","MEAN_MOTION":12.42888497,"ECCENTRICITY":0.00207567,"INCLINATION":82.509,"RA_OF_ASC_NODE":20.5397,"ARG_OF_PERICENTER":347.7256,"MEAN_ANOMALY":12.3315,"EPHEMERIS_TYPE":0,"CLASSIFICATION_TYPE":"U","NORAD_CAT_ID":54152,"ELEMENT_SET_NO":999,"REV_AT_EPOCH":15915,"BSTAR":2.3516872e-5,"MEAN_MOTION_DOT":1.3e-7,"MEAN_MOTION_DDOT":0},{"OBJECT_NAME":"SKIF-D","OBJECT_ID":"2022-139D","EPOCH":"2026-04-25T07:04:01.363008","MEAN_MOTION":5.00437671,"ECCENTRICITY":0.00074065,"INCLINATION":89.9561,"RA_OF_ASC_NODE":96.6848,"ARG_OF_PERICENTER":221.1226,"MEAN_ANOMALY":138.8615,"EPHEMERIS_TYPE":0,"CLASSIFICATION_TYPE":"U","NORAD_CAT_ID":54153,"ELEMENT_SET_NO":999,"REV_AT_EPOCH":6146,"BSTAR":0,"MEAN_MOTION_DOT":4.4e-7,"MEAN_MOTION_DDOT":0},{"OBJECT_NAME":"MATS","OBJECT_ID":"2022-147A","EPOCH":"2026-04-25T22:18:45.474336","MEAN_MOTION":15.05021049,"ECCENTRICITY":0.00133001,"INCLINATION":97.684,"RA_OF_ASC_NODE":117.7663,"ARG_OF_PERICENTER":26.1383,"MEAN_ANOMALY":334.0512,"EPHEMERIS_TYPE":0,"CLASSIFICATION_TYPE":"U","NORAD_CAT_ID":54227,"ELEMENT_SET_NO":999,"REV_AT_EPOCH":18990,"BSTAR":0.00028455933,"MEAN_MOTION_DOT":3.985e-5,"MEAN_MOTION_DDOT":0},{"OBJECT_NAME":"JILIN-1 GAOFEN 03D54","OBJECT_ID":"2022-155D","EPOCH":"2026-04-24T15:45:14.707008","MEAN_MOTION":15.77970365,"ECCENTRICITY":0.00041525,"INCLINATION":97.6072,"RA_OF_ASC_NODE":261.6612,"ARG_OF_PERICENTER":191.4258,"MEAN_ANOMALY":168.6914,"EPHEMERIS_TYPE":0,"CLASSIFICATION_TYPE":"U","NORAD_CAT_ID":54254,"ELEMENT_SET_NO":999,"REV_AT_EPOCH":19181,"BSTAR":0.00082035711,"MEAN_MOTION_DOT":0.00140428,"MEAN_MOTION_DDOT":0},{"OBJECT_NAME":"EOS-6 (OCEANSAT-3)","OBJECT_ID":"2022-158A","EPOCH":"2026-04-25T22:55:47.742816","MEAN_MOTION":14.46979063,"ECCENTRICITY":0.00022986,"INCLINATION":98.3503,"RA_OF_ASC_NODE":214.8517,"ARG_OF_PERICENTER":107.7243,"MEAN_ANOMALY":252.4201,"EPHEMERIS_TYPE":0,"CLASSIFICATION_TYPE":"U","NORAD_CAT_ID":54361,"ELEMENT_SET_NO":999,"REV_AT_EPOCH":18028,"BSTAR":8.4191037e-5,"MEAN_MOTION_DOT":2.63e-6,"MEAN_MOTION_DDOT":0},{"OBJECT_NAME":"DONGPO 09","OBJECT_ID":"2022-167D","EPOCH":"2026-04-25T23:00:12.603744","MEAN_MOTION":15.35164189,"ECCENTRICITY":0.0001342,"INCLINATION":97.6864,"RA_OF_ASC_NODE":284.6945,"ARG_OF_PERICENTER":337.3461,"MEAN_ANOMALY":22.7722,"EPHEMERIS_TYPE":0,"CLASSIFICATION_TYPE":"U","NORAD_CAT_ID":54685,"ELEMENT_SET_NO":999,"REV_AT_EPOCH":18743,"BSTAR":0.00039127834,"MEAN_MOTION_DOT":0.00013278,"MEAN_MOTION_DDOT":0},{"OBJECT_NAME":"DONGPO 08","OBJECT_ID":"2022-167E","EPOCH":"2026-04-25T23:31:35.984640","MEAN_MOTION":15.32619714,"ECCENTRICITY":0.00079459,"INCLINATION":97.6823,"RA_OF_ASC_NODE":282.1379,"ARG_OF_PERICENTER":2.3548,"MEAN_ANOMALY":357.7729,"EPHEMERIS_TYPE":0,"CLASSIFICATION_TYPE":"U","NORAD_CAT_ID":54686,"ELEMENT_SET_NO":999,"REV_AT_EPOCH":18732,"BSTAR":0.00036342209,"MEAN_MOTION_DOT":0.0001138,"MEAN_MOTION_DDOT":0},{"OBJECT_NAME":"2022-167F","OBJECT_ID":"2022-167F","EPOCH":"2026-04-25T23:00:32.891328","MEAN_MOTION":15.77151759,"ECCENTRICITY":0.0003272,"INCLINATION":97.6194,"RA_OF_ASC_NODE":298.1072,"ARG_OF_PERICENTER":213.4138,"MEAN_ANOMALY":146.6921,"EPHEMERIS_TYPE":0,"CLASSIFICATION_TYPE":"U","NORAD_CAT_ID":54687,"ELEMENT_SET_NO":999,"REV_AT_EPOCH":18856,"BSTAR":0.00071752925,"MEAN_MOTION_DOT":0.00118112,"MEAN_MOTION_DDOT":0},{"OBJECT_NAME":"DONGPO 10","OBJECT_ID":"2022-167H","EPOCH":"2026-04-25T22:45:46.296864","MEAN_MOTION":15.33378835,"ECCENTRICITY":0.00037955,"INCLINATION":97.6907,"RA_OF_ASC_NODE":283.9338,"ARG_OF_PERICENTER":306.7604,"MEAN_ANOMALY":53.3289,"EPHEMERIS_TYPE":0,"CLASSIFICATION_TYPE":"U","NORAD_CAT_ID":54689,"ELEMENT_SET_NO":999,"REV_AT_EPOCH":18735,"BSTAR":0.00038212072,"MEAN_MOTION_DOT":0.00012251,"MEAN_MOTION_DDOT":0},{"OBJECT_NAME":"JILIN-1 GAOFEN 03D48","OBJECT_ID":"2022-167P","EPOCH":"2026-04-25T23:18:46.405152","MEAN_MOTION":15.34097429,"ECCENTRICITY":0.00051229,"INCLINATION":97.684,"RA_OF_ASC_NODE":283.3207,"ARG_OF_PERICENTER":308.329,"MEAN_ANOMALY":51.7491,"EPHEMERIS_TYPE":0,"CLASSIFICATION_TYPE":"U","NORAD_CAT_ID":54695,"ELEMENT_SET_NO":999,"REV_AT_EPOCH":18738,"BSTAR":0.00037967944,"MEAN_MOTION_DOT":0.00012455,"MEAN_MOTION_DDOT":0},{"OBJECT_NAME":"STAR VIBE","OBJECT_ID":"2023-001A","EPOCH":"2026-04-25T22:15:10.708992","MEAN_MOTION":15.41181062,"ECCENTRICITY":0.00041731,"INCLINATION":97.3209,"RA_OF_ASC_NODE":180.2273,"ARG_OF_PERICENTER":310.607,"MEAN_ANOMALY":49.4814,"EPHEMERIS_TYPE":0,"CLASSIFICATION_TYPE":"U","NORAD_CAT_ID":55009,"ELEMENT_SET_NO":999,"REV_AT_EPOCH":18417,"BSTAR":0.00038277681,"MEAN_MOTION_DOT":0.0001581,"MEAN_MOTION_DDOT":0}]
