OTB-3-GAZELLE           
1 54023U 22127A   26115.90373023  .00000162  00000+0  61698-4 0  9992
2 54023  98.3936 108.4088 0012939 352.1705   7.9281 14.42654920186829
ASO-S                   
1 54029U 22129A   26115.95203198  .00000196  00000+0  59524-4 0  9992
2 54029  98.2765 121.7792 0013047 251.5651 108.4126 14.52036378187847
HJ-2E                   
1 54035U 22132A   26115.94873611  .00008803  00000+0  39157-3 0  9997
2 54035  97.3819 121.2972 0020522 187.0243 173.0709 15.21535149196476
COSMOS 2561             
1 54109U 22137A   26115.83904225  .00013921  00000+0  24637-3 0  9992
2 54109  96.9242 176.8293 0009017 208.4587 151.6174 15.50357392198238
GONETS-M 23             
1 54150U 22139A   26115.93978972  .00000024  00000+0  10213-3 0  9996
2 54150  82.5112  20.7607 0021444 338.6377  21.3806 12.42888469159153
GONETS-M 24             
1 54151U 22139B   26115.99341844  .00000012  00000+0  14547-4 0  9997
2 54151  82.5025  19.8231 0016881 349.7895  10.2840 12.42888983159163
GONETS-M 25             
1 54152U 22139C   26115.89926608  .00000013  00000+0  23517-4 0  9992
2 54152  82.5090  20.5397 0020756 347.7256  12.3315 12.42888497159152
SKIF-D                  
1 54153U 22139D   26115.29446022  .00000044  00000+0  00000+0 0  9995
2 54153  89.9561  96.6848 0007406 221.1226 138.8615  5.00437671 61464
MATS                    
1 54227U 22147A   26115.92969299  .00003985  00000+0  28456-3 0  9998
2 54227  97.6840 117.7663 0013300  26.1383 334.0512 15.05021049189909
JILIN-1 GAOFEN 03D54    
1 54254U 22155D   26114.65642022  .00140428  00000+0  82036-3 0  9996
2 54254  97.6072 261.6612 0004152 191.4258 168.6914 15.77970365191814
EOS-6 (OCEANSAT-3)      
1 54361U 22158A   26115.95541369  .00000263  00000+0  84191-4 0  9991
2 54361  98.3503 214.8517 0002298 107.7243 252.4201 14.46979063180286
DONGPO 09               
1 54685U 22167D   26115.95847921  .00013278  00000+0  39128-3 0  9992
2 54685  97.6864 284.6945 0001342 337.3461  22.7722 15.35164189187433
DONGPO 08               
1 54686U 22167E   26115.98027760  .00011380  00000+0  36342-3 0  9994
2 54686  97.6823 282.1379 0007945   2.3548 357.7729 15.32619714187325
2022-167F               
1 54687U 22167F   26115.95871402  .00118112  00000+0  71753-3 0  9998
2 54687  97.6194 298.1072 0003272 213.4138 146.6921 15.77151759188568
DONGPO 10               
1 54689U 22167H   26115.94845251  .00012251  00000+0  38212-3 0  9992
2 54689  97.6907 283.9338 0003795 306.7604  53.3289 15.33378835187358
JILIN-1 GAOFEN 03D48    
1 54695U 22167P   26115.97137043  .00012455  00000+0  37968-3 0  9998
2 54695  97.6840 283.3207 0005122 308.3290  51.7491 15.34097429187383
STAR VIBE               
1 55009U 23001A   26115.92720728  .00015810  00000+0  38278-3 0  9992
2 55009  97.3209 180.2273 0004173 310.6070  49.4814 15.41181062184176
